PROBA-1                 
1 26958U 01049B   26201.98701965  .00000647  00000+0  45688-4 0  9991
2 26958  97.9604 211.7029 0055023  10.2710 349.9627 15.07624609348718
CUTE-1 (CO-55)          
1 27844U 03031E   26201.82623460  .00000172  00000+0  93434-4 0  9990
2 27844  98.6745 209.9631 0010867  88.2698 271.9726 14.24353809196468
CUBESAT XI-IV (CO-57)   
1 27848U 03031J   26201.48019381  .00000116  00000+0  70115-4 0  9996
2 27848  98.6776 209.3071 0010684 105.6000 254.6359 14.23636281196115
APRIZESAT 4             
1 35684U 09041D   26201.77021557  .00000352  00000+0  48747-4 0  9998
2 35684  98.1399 277.7585 0042578 211.0623 148.8072 14.83918396916344
APRIZESAT 3             
1 35686U 09041F   26201.93658523  .00000187  00000+0  21934-4 0  9992
2 35686  98.2107 356.7871 0060680 316.6675  42.9781 14.96317642921420
PROBA-2                 
1 36037U 09059B   26201.45895227  .00000081  00000+0  29513-4 0  9997
2 36037  98.2463  24.3525 0013392 172.4642 187.6759 14.54874896886368
APRIZESAT 5             
1 37792U 11044E   26201.78602829  .00000405  00000+0  58626-4 0  9990
2 37792  98.2447 135.7807 0050722 254.2025 105.3591 14.81132782803766
APRIZESAT 6             
1 37793U 11044F   26201.28566111  .00000362  00000+0  58661-4 0  9990
2 37793  98.2331 112.4577 0042647 341.9243 132.1235 14.76961193802030
PROBA-V                 
1 39159U 13021A   26201.92601869  .00000037  00000+0  34283-4 0  9999
2 39159  98.3609 178.8711 0005026  46.6318 313.5280 14.23604092685910
APRIZESAT 7             
1 39416U 13066A   26201.83005211  .00000725  00000+0  76952-4 0  9996
2 39416  97.7724 154.5708 0037328  99.3712 261.1730 14.91627107686249
APRIZESAT 8             
1 39425U 13066K   26201.83885243  .00000487  00000+0  58582-4 0  9991
2 39425  97.8231 148.8410 0045981 173.2600 186.9245 14.87701914684675
BUGSAT-1 (TITA)         
1 40014U 14033E   26201.90174394  .00001488  00000+0  80861-4 0  9995
2 40014  98.0423 296.4309 0028945  67.4948 292.9343 15.15911972660944
SAUDISAT 4              
1 40016U 14033G   26201.93310271  .00000313  00000+0  48032-4 0  9996
2 40016  97.7626 346.9093 0043827 325.0990  34.7351 14.79579233651067
APRIZESAT 9             
1 40018U 14033J   26201.94055752  .00000379  00000+0  62934-4 0  9998
2 40018  97.9102 334.3216 0067497  91.8776 269.0165 14.74257225648530
APRIZESAT 10            
1 40019U 14033K   26201.86807264  .00000423  00000+0  73952-4 0  9995
2 40019  97.9688 328.0834 0079173 165.2923 195.0614 14.70915553647201
TECHDEMOSAT-1 (TDS-1)   
1 40076U 14037H   26201.94154177  .00005642  00000+0  31728-3 0  9991
2 40076  98.3837 197.5151 0007336 141.9058 218.2691 15.13727880653334
TECHNOSAT               
1 42829U 17042E   26201.69104277  .00001305  00000+0  95575-4 0  9999
2 42829  97.4324 358.0846 0016903 345.2389  14.8343 15.05128015491749
FLYING LAPTOP           
1 42831U 17042G   26201.91192851  .00001915  00000+0  15267-3 0  9998
2 42831  97.4839 356.1821 0019390  14.3546 345.8225 15.01335051491514
HAWK-A                  
1 43765U 18099H   26201.09407375  .00003914  00000+0  15705-3 0  9995
2 43765  97.3891 252.9053 0035273 166.8572 193.3593 15.25001549418115
HAWK-B                  
1 43794U 18099AN  26201.08949461  .00003298  00000+0  14077-3 0  9999
2 43794  97.3942 252.2461 0031869 184.7615 175.3324 15.23147151418046
HAWK-C                  
1 43799U 18099AT  26201.38817358  .00004860  00000+0  17352-3 0  9991
2 43799  97.3868 254.2731 0040826 165.5943 194.6471 15.28539634418980
SALSAT                  
1 46495U 20068K   26201.95728298  .00005257  00000+0  18248-3 0  9999
2 46495  97.8866 207.0909 0009821 172.7459 187.3924 15.30221969320520
HAWK-2C                 
1 47502U 21006CT  26201.07575980  .00003542  00000+0  10646-3 0  9992
2 47502  97.2260 244.7343 0008660  87.1093 273.1142 15.35024151304544
HAWK-2A                 
1 47505U 21006CW  26201.59941227  .00003760  00000+0  11278-3 0  9997
2 47505  97.2303 245.9448 0008214  89.0815 271.1369 15.35049179304627
HAWK-2B                 
1 47508U 21006CZ  26201.85320738  .00005114  00000+0  15187-3 0  9995
2 47508  97.2174 244.4728 0008744  86.7227 273.5018 15.35185099304663
HAWK-3B                 
1 48931U 21059BE  26201.12896549  .00028153  00000+0  21492-3 0  9996
2 48931  97.6637  41.0194 0004855 181.2561 178.8690 15.72164957283021
HAWK-3C                 
1 48948U 21059BX  26201.82877510  .00030658  00000+0  23341-3 0  9996
2 48948  97.6749  47.5312 0005265 178.9244 181.2031 15.72210741283135
HAWK-3A                 
1 48957U 21059CG  26201.12853685  .00027537  00000+0  21025-3 0  9995
2 48957  97.6701  43.9389 0005049 183.4307 176.6922 15.72164641283020
HAWK-5C                 
1 52754U 22057Y   26201.89433708  .00013388  00000+0  22058-3 0  9994
2 52754  97.6629   3.7701 0002388 318.0528  42.0541 15.52454650231571
HAWK-5B                 
1 52756U 22057AA  26201.89416666  .00013142  00000+0  21658-3 0  9993
2 52756  97.6639   2.1246 0003047 303.4308  56.6652 15.52450165231579
